norad_id,name,regime,epoch,line1,line2,inclination,eccentricity,mean_motion,raan,arg_pericenter,mean_anomaly
19789,COSMOS 1998,LEO,22234.27944254,1 19789U 89009E   22234.27944254  .00000004  00000-0 -33305-4 0    17\,2 19789  82.6133 141.8903 0015224 217.1297 142.8744 12.64876562547663,82.6133,0.0015224,12.64876562,141.8903,217.1297,142.8744
19789,COSMOS 1998,LEO,22234.43764009,1 19789U 89009E   22234.43764009  .00000004  00000-0 -38627-4 0    15\,2 19789  82.6133 141.7893 0015229 216.7423 143.2627 12.64876546547680,82.6133,0.0015229,12.64876546,141.7893,216.7423,143.2627
19789,COSMOS 1998,LEO,22235.46592425,1 19789U 89009E   22235.46592425 -.00000000  00000-0 -59044-4 0  8493\,2 19789  82.6132 141.1333 0015265 214.2636 145.7473 12.64876505547996,82.6132,0.0015265,12.64876505,141.1333,214.2636,145.7473
19789,COSMOS 1998,LEO,22236.25691208,1 19789U 89009E   22236.25691208  .00000006  00000-0 -23979-4 0    13\,2 19789  82.6131 140.6286 0015292 212.3785 147.6370 12.64876519547914,82.6131,0.0015292,12.64876519,140.6286,212.3785,147.637
19789,COSMOS 1998,LEO,22236.49420845,1 19789U 89009E   22236.49420845  .00000007  00000-0 -22158-4 0    15\,2 19789  82.6131 140.4772 0015300 211.8164 148.2006 12.64876493547944,82.6131,0.00153,12.64876493,140.4772,211.8164,148.2006
19789,COSMOS 1998,LEO,22237.20609751,1 19789U 89009E   22237.20609751  .00000011  00000-0 -88172-6 0    15\,2 19789  82.6130 140.0230 0015326 210.1176 149.9037 12.64876503548036,82.613,0.0015326,12.64876503,140.023,210.1176,149.9037
19789,COSMOS 1998,LEO,22238.15528295,1 19789U 89009E   22238.15528295  .00000019  00000-0  44043-4 0  8509\,2 19789  82.6129 139.4174 0015364 207.8936 152.1335 12.64876529548330,82.6129,0.0015364,12.64876529,139.4174,207.8936,152.1335
19789,COSMOS 1998,LEO,22238.23438172,1 19789U 89009E   22238.23438172  .00000020  00000-0  49100-4 0    11\,2 19789  82.6129 139.3669 0015366 207.7057 152.3218 12.64876543548162,82.6129,0.0015366,12.64876543,139.3669,207.7057,152.3218
19789,COSMOS 1998,LEO,22238.70897446,1 19789U 89009E   22238.70897446  .00000023  00000-0  68991-4 0    18\,2 19789  82.6128 139.0641 0015382 206.5804 153.4501 12.64876551548226,82.6128,0.0015382,12.64876551,139.0641,206.5804,153.4501
19789,COSMOS 1998,LEO,22239.18356722,1 19789U 89009E   22239.18356722  .00000027  00000-0  87998-4 0    10\,2 19789  82.6128 138.7613 0015400 205.4542 154.5794 12.64876548548287,82.6128,0.00154,12.64876548,138.7613,205.4542,154.5794
19789,COSMOS 1998,LEO,22239.73725880,1 19789U 89009E   22239.73725880  .00000028  00000-0  93324-4 0    17\,2 19789  82.6127 138.4080 0015417 204.0934 155.9439 12.64876560548352,82.6127,0.0015417,12.6487656,138.408,204.0934,155.9439
19789,COSMOS 1998,LEO,22240.21185153,1 19789U 89009E   22240.21185153  .00000033  00000-0  11924-3 0    16\,2 19789  82.6127 138.1051 0015436 202.9566 157.0838 12.64876596548418,82.6127,0.0015436,12.64876596,138.1051,202.9566,157.0838
19789,COSMOS 1998,LEO,22240.76554300,1 19789U 89009E   22240.76554300  .00000039  00000-0  15027-3 0    14\,2 19789  82.6126 137.7519 0015457 201.6627 158.3814 12.64876656548480,82.6126,0.0015457,12.64876656,137.7519,201.6627,158.3814
19789,COSMOS 1998,LEO,22241.39833329,1 19789U 89009E   22241.39833329  .00000041  00000-0  16219-3 0    12\,2 19789  82.6125 137.3481 0015482 200.1832 159.8651 12.64876663548565,82.6125,0.0015482,12.64876663,137.3481,200.1832,159.8651
19789,COSMOS 1998,LEO,22242.42661745,1 19789U 89009E   22242.42661745  .00000037  00000-0  14435-3 0  8525\,2 19789  82.6124 136.6920 0015525 197.7819 162.2733 12.64876706548879,82.6124,0.0015525,12.64876706,136.692,197.7819,162.2733
19789,COSMOS 1998,LEO,22242.74301255,1 19789U 89009E   22242.74301255  .00000035  00000-0  13093-3 0    10\,2 19789  82.6123 136.4901 0015538 197.0613 162.9959 12.64876733548736,82.6123,0.0015538,12.64876733,136.4901,197.0613,162.9959
19789,COSMOS 1998,LEO,22243.21760524,1 19789U 89009E   22243.21760524  .00000033  00000-0  12187-3 0    12\,2 19789  82.6123 136.1872 0015557 195.9653 164.0951 12.64876744548795,82.6123,0.0015557,12.64876744,136.1872,195.9653,164.0951
19789,COSMOS 1998,LEO,22243.69219793,1 19789U 89009E   22243.69219793  .00000030  00000-0  10397-3 0    19\,2 19789  82.6122 135.8844 0015577 194.8463 165.2175 12.64876751548854,82.6122,0.0015577,12.64876751,135.8844,194.8463,165.2175
19789,COSMOS 1998,LEO,22244.40408694,1 19789U 89009E   22244.40408694  .00000020  00000-0  51733-4 0    18\,2 19789  82.6122 135.4301 0015603 193.2204 166.8481 12.64876729548946,82.6122,0.0015603,12.64876729,135.4301,193.2204,166.8481
19789,COSMOS 1998,LEO,22245.11597599,1 19789U 89009E   22245.11597599  .00000015  00000-0  23435-4 0  8537\,2 19789  82.6121 134.9758 0015632 191.5515 168.5221 12.64876750549219,82.6121,0.0015632,12.6487675,134.9758,191.5515,168.5221
19789,COSMOS 1998,LEO,22245.43237111,1 19789U 89009E   22245.43237111  .00000015  00000-0  21852-4 0    19\,2 19789  82.6120 134.7740 0015647 190.7828 169.2931 12.64876765549077,82.612,0.0015647,12.64876765,134.774,190.7828,169.2931
19789,COSMOS 1998,LEO,22245.66966747,1 19789U 89009E   22245.66966747  .00000013  00000-0  10851-4 0    13\,2 19789  82.6120 134.6225 0015658 190.2243 169.8533 12.64876771549107,82.612,0.0015658,12.64876771,134.6225,190.2243,169.8533
19789,COSMOS 1998,LEO,22246.38155649,1 19789U 89009E   22246.38155649  .00000009  00000-0 -86802-5 0    10\,2 19789  82.6118 134.1682 0015689 188.5660 171.5168 12.64876761549195,82.6118,0.0015689,12.64876761,134.1682,188.566,171.5168
19789,COSMOS 1998,LEO,22246.77705039,1 19789U 89009E   22246.77705039  .00000005  00000-0 -31517-4 0    15\,2 19789  82.6118 133.9159 0015706 187.6499 172.4357 12.64876762549248,82.6118,0.0015706,12.64876762,133.9159,187.6499,172.4357
19789,COSMOS 1998,LEO,22247.17254430,1 19789U 89009E   22247.17254430  .00000005  00000-0 -30720-4 0  8545\,2 19789  82.6117 133.6635 0015726 186.7196 173.3688 12.64876776549476,82.6117,0.0015726,12.64876776,133.6635,186.7196,173.3688
19789,COSMOS 1998,LEO,22247.80533458,1 19789U 89009E   22247.80533458  .00000005  00000-0 -28741-4 0    19\,2 19789  82.6116 133.2596 0015753 185.2436 174.8494 12.64876791549375,82.6116,0.0015753,12.64876791,133.2596,185.2436,174.8494
19789,COSMOS 1998,LEO,22248.43812491,1 19789U 89009E   22248.43812491  .00000010  00000-0 -30283-5 0    17\,2 19789  82.6114 132.8558 0015782 183.7605 176.3371 12.64876788549455,82.6114,0.0015782,12.64876788,132.8558,183.7605,176.3371
19789,COSMOS 1998,LEO,22248.75452005,1 19789U 89009E   22248.75452005  .00000008  00000-0 -13209-4 0    18\,2 19789  82.6113 132.6538 0015796 183.0237 177.0762 12.64876787549494,82.6113,0.0015796,12.64876787,132.6538,183.0237,177.0762
19789,COSMOS 1998,LEO,22249.15001401,1 19789U 89009E   22249.15001401  .00000011  00000-0  25647-5 0    16\,2 19789  82.6113 132.4014 0015816 182.1089 177.9940 12.64876788549543,82.6113,0.0015816,12.64876788,132.4014,182.1089,177.994
19789,COSMOS 1998,LEO,22249.70370551,1 19789U 89009E   22249.70370551  .00000013  00000-0  10578-4 0    10\,2 19789  82.6111 132.0481 0015840 180.8284 179.2785 12.64876805549614,82.6111,0.001584,12.64876805,132.0481,180.8284,179.2785
19789,COSMOS 1998,LEO,22250.17829825,1 19789U 89009E   22250.17829825  .00000019  00000-0  44213-4 0    15\,2 19789  82.6110 131.7452 0015862 179.7366 180.3737 12.64876823549675,82.611,0.0015862,12.64876823,131.7452,179.7366,180.3737
19789,COSMOS 1998,LEO,22250.73198976,1 19789U 89009E   22250.73198976  .00000024  00000-0  70994-4 0    14\,2 19789  82.6109 131.3918 0015886 178.4609 181.6535 12.64876842549747,82.6109,0.0015886,12.64876842,131.3918,178.4609,181.6535
19789,COSMOS 1998,LEO,22251.36478007,1 19789U 89009E   22251.36478007  .00000030  00000-0  10340-3 0    15\,2 19789  82.6108 130.9879 0015916 177.0039 183.1152 12.64876843549825,82.6108,0.0015916,12.64876843,130.9879,177.0039,183.1152
19789,COSMOS 1998,LEO,22251.76027392,1 19789U 89009E   22251.76027392  .00000033  00000-0  12209-3 0    15\,2 19789  82.6107 130.7355 0015931 176.1336 183.9883 12.64876887549870,82.6107,0.0015931,12.64876887,130.7355,176.1336,183.9883
19789,COSMOS 1998,LEO,22252.07666909,1 19789U 89009E   22252.07666909  .00000034  00000-0  12625-3 0  8564\,2 19789  82.6107 130.5335 0015944 175.4319 184.6922 12.64876876550099,82.6107,0.0015944,12.64876876,130.5335,175.4319,184.6922
19789,COSMOS 1998,LEO,22252.15576787,1 19789U 89009E   22252.15576787  .00000034  00000-0  12439-3 0    12\,2 19789  82.6107 130.4830 0015947 175.2522 184.8725 12.64876880549923,82.6107,0.0015947,12.6487688,130.483,175.2522,184.8725
19789,COSMOS 1998,LEO,22252.70945937,1 19789U 89009E   22252.70945937  .00000037  00000-0  13911-3 0    19\,2 19789  82.6106 130.1296 0015972 173.9734 186.1553 12.64876902549999,82.6106,0.0015972,12.64876902,130.1296,173.9734,186.1553
19789,COSMOS 1998,LEO,22253.18405209,1 19789U 89009E   22253.18405209  .00000039  00000-0  15256-3 0    11\,2 19789  82.6105 129.8267 0015995 172.9051 187.2271 12.64876899550050,82.6105,0.0015995,12.64876899,129.8267,172.9051,187.2271
19789,COSMOS 1998,LEO,22253.73774351,1 19789U 89009E   22253.73774351  .00000040  00000-0  15693-3 0    16\,2 19789  82.6104 129.4733 0016018 171.6537 188.4825 12.64876925550121,82.6104,0.0016018,12.64876925,129.4733,171.6537,188.4825
19789,COSMOS 1998,LEO,22254.13323738,1 19789U 89009E   22254.13323738  .00000042  00000-0  17036-3 0  8574\,2 19789  82.6103 129.2209 0016037 170.7602 189.3788 12.64876956550357,82.6103,0.0016037,12.64876956,129.2209,170.7602,189.3788
19789,COSMOS 1998,LEO,22254.76602749,1 19789U 89009E   22254.76602749  .00000039  00000-0  15492-3 0    16\,2 19789  82.6102 128.8170 0016063 169.3504 190.7932 12.64876998550254,82.6102,0.0016063,12.64876998,128.817,169.3504,190.7932
19789,COSMOS 1998,LEO,22255.08242259,1 19789U 89009E   22255.08242259  .00000040  00000-0  15769-3 0    17\,2 19789  82.6102 128.6150 0016076 168.6408 191.5051 12.64877011550291,82.6102,0.0016076,12.64877011,128.615,168.6408,191.5051
